[
  {
    "model": "registration.address",
    "pk": 1,
    "fields": {
      "street_address": "123 Main St",
      "municipality": "Cityville",
      "province": "ON",
      "postal_code": "A1B 2C3"
    }
  },
  {
    "model": "registration.address",
    "pk": 2,
    "fields": {
      "street_address": "456 Elm St",
      "municipality": "Townsville",
      "province": "BC",
      "postal_code": "X0Y 1Z0"
    }
  },
  {
    "model": "registration.address",
    "pk": 3,
    "fields": {
      "street_address": "123 Main St",
      "municipality": "City",
      "province": "ON",
      "postal_code": "A1B 2C3"
    }
  },
  {
    "model": "registration.address",
    "pk": 4,
    "fields": {
      "street_address": "789 Oak St",
      "municipality": "Village",
      "province": "BC",
      "postal_code": "M2N 3P4"
    }
  },
  {
    "model": "registration.address",
    "pk": 5,
    "fields": {
      "street_address": "101 Maple St",
      "municipality": "Hamlet",
      "province": "QC",
      "postal_code": "H3Z 2Y7"
    }
  },
  {
    "model": "registration.address",
    "pk": 6,
    "fields": {
      "street_address": "202 Pine St",
      "municipality": "Borough",
      "province": "AB",
      "postal_code": "T5K 1P2"
    }
  },
  {
    "model": "registration.address",
    "pk": 7,
    "fields": {
      "street_address": "303 Cedar St",
      "municipality": "Metropolis",
      "province": "ON",
      "postal_code": "M4B 1B3"
    }
  },
  {
    "model": "registration.address",
    "pk": 8,
    "fields": {
      "street_address": "404 Birch St",
      "municipality": "Uptown",
      "province": "BC",
      "postal_code": "V6B 2W3"
    }
  },
  {
    "model": "registration.address",
    "pk": 9,
    "fields": {
      "street_address": "505 Spruce St",
      "municipality": "Downtown",
      "province": "ON",
      "postal_code": "K1A 0B1"
    }
  },
  {
    "model": "registration.address",
    "pk": 10,
    "fields": {
      "street_address": "606 Fir St",
      "municipality": "Suburbia",
      "province": "QC",
      "postal_code": "G1V 4N7"
    }
  },
  {
    "model": "registration.address",
    "pk": 11,
    "fields": {
      "street_address": "707 Willow St",
      "municipality": "Riverside",
      "province": "MB",
      "postal_code": "R3C 4A5"
    }
  },
  {
    "model": "registration.address",
    "pk": 12,
    "fields": {
      "street_address": "808 Poplar St",
      "municipality": "Lakeside",
      "province": "NS",
      "postal_code": "B3H 2Y9"
    }
  },
  {
    "model": "registration.address",
    "pk": 13,
    "fields": {
      "street_address": "909 Aspen St",
      "municipality": "Hillside",
      "province": "NB",
      "postal_code": "E3B 1A1"
    }
  },
  {
    "model": "registration.address",
    "pk": 14,
    "fields": {
      "street_address": "1010 Redwood St",
      "municipality": "Seaside",
      "province": "PE",
      "postal_code": "C1A 7N8"
    }
  },
  {
    "model": "registration.address",
    "pk": 15,
    "fields": {
      "street_address": "1111 Chestnut St",
      "municipality": "Mountainview",
      "province": "NL",
      "postal_code": "A1C 5H7"
    }
  },
  {
    "model": "registration.address",
    "pk": 16,
    "fields": {
      "street_address": "1212 Walnut St",
      "municipality": "Forestville",
      "province": "SK",
      "postal_code": "S7K 3R5"
    }
  },
  {
    "model": "registration.address",
    "pk": 17,
    "fields": {
      "street_address": "1313 Hickory St",
      "municipality": "Prairie",
      "province": "MB",
      "postal_code": "R2C 4A6"
    }
  },
  {
    "model": "registration.address",
    "pk": 18,
    "fields": {
      "street_address": "1414 Sycamore St",
      "municipality": "Baytown",
      "province": "ON",
      "postal_code": "L4W 5N8"
    }
  },
  {
    "model": "registration.address",
    "pk": 19,
    "fields": {
      "street_address": "1515 Magnolia St",
      "municipality": "Harbor",
      "province": "BC",
      "postal_code": "V8W 1N4"
    }
  },
  {
    "model": "registration.address",
    "pk": 20,
    "fields": {
      "street_address": "1616 Dogwood St",
      "municipality": "Cove",
      "province": "QC",
      "postal_code": "J4Z 2Y8"
    }
  },
  {
    "model": "registration.address",
    "pk": 21,
    "fields": {
      "street_address": "1717 Alder St",
      "municipality": "Grove",
      "province": "ON",
      "postal_code": "N2L 3G1"
    }
  },
  {
    "model": "registration.address",
    "pk": 21,
    "fields": {
      "street_address": "Incomplete address",
      "municipality": "Grove"
    }
  }
]
